[{"OBJECT_NAME":"LEMUR-1","OBJECT_ID":"2014-033AL","EPOCH":"2026-03-02T23:12:18.438048","MEAN_MOTION":14.84754939,"ECCENTRICITY":0.0049842,"INCLINATION":97.7699,"RA_OF_ASC_NODE":214.2587,"ARG_OF_PERICENTER":67.4848,"MEAN_ANOMALY":293.1632,"EPHEMERIS_TYPE":0,"CLASSIFICATION_TYPE":"U","NORAD_CAT_ID":40044,"ELEMENT_SET_NO":999,"REV_AT_EPOCH":62970,"BSTAR":0.00038382,"MEAN_MOTION_DOT":3.273e-5,"MEAN_MOTION_DDOT":0},{"OBJECT_NAME":"LEMUR-2-GREENBERG","OBJECT_ID":"2017-042N","EPOCH":"2026-03-03T01:02:39.136128","MEAN_MOTION":15.27663907,"ECCENTRICITY":0.0009499,"INCLINATION":97.3763,"RA_OF_ASC_NODE":243.4486,"ARG_OF_PERICENTER":26.5998,"MEAN_ANOMALY":333.5727,"EPHEMERIS_TYPE":0,"CLASSIFICATION_TYPE":"U","NORAD_CAT_ID":42837,"ELEMENT_SET_NO":999,"REV_AT_EPOCH":47216,"BSTAR":0.00078145,"MEAN_MOTION_DOT":0.0002112,"MEAN_MOTION_DDOT":0},{"OBJECT_NAME":"LEMUR-2-ANDIS","OBJECT_ID":"2017-042P","EPOCH":"2026-03-03T00:29:58.893792","MEAN_MOTION":15.30172931,"ECCENTRICITY":0.0009464,"INCLINATION":97.3647,"RA_OF_ASC_NODE":243.3092,"ARG_OF_PERICENTER":27.0582,"MEAN_ANOMALY":333.1151,"EPHEMERIS_TYPE":0,"CLASSIFICATION_TYPE":"U","NORAD_CAT_ID":42838,"ELEMENT_SET_NO":999,"REV_AT_EPOCH":47219,"BSTAR":0.00085573,"MEAN_MOTION_DOT":0.00024994,"MEAN_MOTION_DDOT":0},{"OBJECT_NAME":"LEMUR-2-MONSON","OBJECT_ID":"2017-042Q","EPOCH":"2026-03-03T00:44:36.752352","MEAN_MOTION":15.24714254,"ECCENTRICITY":0.0006963,"INCLINATION":97.4018,"RA_OF_ASC_NODE":243.5458,"ARG_OF_PERICENTER":15.9482,"MEAN_ANOMALY":344.1974,"EPHEMERIS_TYPE":0,"CLASSIFICATION_TYPE":"U","NORAD_CAT_ID":42839,"ELEMENT_SET_NO":999,"REV_AT_EPOCH":47197,"BSTAR":0.00076101,"MEAN_MOTION_DOT":0.00018799,"MEAN_MOTION_DDOT":0},{"OBJECT_NAME":"LEMUR-2-FURIAUS","OBJECT_ID":"2017-042R","EPOCH":"2026-03-03T00:15:47.707776","MEAN_MOTION":15.25840935,"ECCENTRICITY":0.0007636,"INCLINATION":97.3735,"RA_OF_ASC_NODE":241.6417,"ARG_OF_PERICENTER":80.7662,"MEAN_ANOMALY":279.444,"EPHEMERIS_TYPE":0,"CLASSIFICATION_TYPE":"U","NORAD_CAT_ID":42840,"ELEMENT_SET_NO":999,"REV_AT_EPOCH":47199,"BSTAR":0.0010584,"MEAN_MOTION_DOT":0.00027105,"MEAN_MOTION_DDOT":0},{"OBJECT_NAME":"LEMUR-2-PETERG","OBJECT_ID":"2017-042S","EPOCH":"2026-03-02T22:33:17.940672","MEAN_MOTION":15.29267884,"ECCENTRICITY":0.0003997,"INCLINATION":97.3963,"RA_OF_ASC_NODE":247.1508,"ARG_OF_PERICENTER":4.705,"MEAN_ANOMALY":355.4227,"EPHEMERIS_TYPE":0,"CLASSIFICATION_TYPE":"U","NORAD_CAT_ID":42841,"ELEMENT_SET_NO":999,"REV_AT_EPOCH":47217,"BSTAR":0.00081387,"MEAN_MOTION_DOT":0.00023084,"MEAN_MOTION_DDOT":0},{"OBJECT_NAME":"LEMUR-2-DEMBITZ","OBJECT_ID":"2017-042T","EPOCH":"2026-03-02T23:40:38.167104","MEAN_MOTION":15.26629488,"ECCENTRICITY":0.0007232,"INCLINATION":97.3792,"RA_OF_ASC_NODE":244.5104,"ARG_OF_PERICENTER":39.3603,"MEAN_ANOMALY":320.816,"EPHEMERIS_TYPE":0,"CLASSIFICATION_TYPE":"U","NORAD_CAT_ID":42842,"ELEMENT_SET_NO":999,"REV_AT_EPOCH":47212,"BSTAR":0.00083486,"MEAN_MOTION_DOT":0.00021862,"MEAN_MOTION_DDOT":0},{"OBJECT_NAME":"LEMUR-2-ZACHARY","OBJECT_ID":"2017-042W","EPOCH":"2026-03-02T23:12:31.690944","MEAN_MOTION":15.4133153,"ECCENTRICITY":0.0003748,"INCLINATION":97.3649,"RA_OF_ASC_NODE":251.9992,"ARG_OF_PERICENTER":42.4362,"MEAN_ANOMALY":317.7174,"EPHEMERIS_TYPE":0,"CLASSIFICATION_TYPE":"U","NORAD_CAT_ID":42845,"ELEMENT_SET_NO":999,"REV_AT_EPOCH":47279,"BSTAR":0.0011292,"MEAN_MOTION_DOT":0.00047226,"MEAN_MOTION_DDOT":0},{"OBJECT_NAME":"LEMUR-2-JIN-LUEN","OBJECT_ID":"2018-014C","EPOCH":"2026-03-02T17:57:31.065408","MEAN_MOTION":15.75656413,"ECCENTRICITY":0.00017078,"INCLINATION":97.5453,"RA_OF_ASC_NODE":351.3973,"ARG_OF_PERICENTER":93.9946,"MEAN_ANOMALY":266.1514,"EPHEMERIS_TYPE":0,"CLASSIFICATION_TYPE":"U","NORAD_CAT_ID":43182,"ELEMENT_SET_NO":999,"REV_AT_EPOCH":44437,"BSTAR":0.0014376613,"MEAN_MOTION_DOT":0.0022455,"MEAN_MOTION_DDOT":0},{"OBJECT_NAME":"LEMUR-2-KADI","OBJECT_ID":"2018-014E","EPOCH":"2026-03-03T00:17:44.657088","MEAN_MOTION":15.62642573,"ECCENTRICITY":0.0001225,"INCLINATION":97.4722,"RA_OF_ASC_NODE":346.3015,"ARG_OF_PERICENTER":43.4287,"MEAN_ANOMALY":316.7068,"EPHEMERIS_TYPE":0,"CLASSIFICATION_TYPE":"U","NORAD_CAT_ID":43184,"ELEMENT_SET_NO":999,"REV_AT_EPOCH":44434,"BSTAR":0.0011642,"MEAN_MOTION_DOT":0.00105126,"MEAN_MOTION_DDOT":0},{"OBJECT_NAME":"LEMUR-2-AMANDA-SVANTE","OBJECT_ID":"2021-034B","EPOCH":"2026-03-03T03:54:58.358016","MEAN_MOTION":15.27987593,"ECCENTRICITY":0.0002101,"INCLINATION":97.5848,"RA_OF_ASC_NODE":138.1304,"ARG_OF_PERICENTER":227.7624,"MEAN_ANOMALY":132.3437,"EPHEMERIS_TYPE":0,"CLASSIFICATION_TYPE":"U","NORAD_CAT_ID":48269,"ELEMENT_SET_NO":999,"REV_AT_EPOCH":26483,"BSTAR":0.0011595,"MEAN_MOTION_DOT":0.00031688,"MEAN_MOTION_DDOT":0},{"OBJECT_NAME":"LEMUR-2-SPECIAL-K","OBJECT_ID":"2021-034F","EPOCH":"2026-03-03T04:10:43.593888","MEAN_MOTION":15.44239697,"ECCENTRICITY":0.0001444,"INCLINATION":97.5731,"RA_OF_ASC_NODE":143.2096,"ARG_OF_PERICENTER":221.9143,"MEAN_ANOMALY":138.1994,"EPHEMERIS_TYPE":0,"CLASSIFICATION_TYPE":"U","NORAD_CAT_ID":48273,"ELEMENT_SET_NO":999,"REV_AT_EPOCH":26523,"BSTAR":0.0015327,"MEAN_MOTION_DOT":0.00070883,"MEAN_MOTION_DDOT":0},{"OBJECT_NAME":"LEMUR-2-EMBRIONOVIS","OBJECT_ID":"2023-084AQ","EPOCH":"2026-03-02T22:54:55.395648","MEAN_MOTION":15.34499109,"ECCENTRICITY":0.0008664,"INCLINATION":97.6116,"RA_OF_ASC_NODE":202.4209,"ARG_OF_PERICENTER":338.8061,"MEAN_ANOMALY":21.2821,"EPHEMERIS_TYPE":0,"CLASSIFICATION_TYPE":"U","NORAD_CAT_ID":56970,"ELEMENT_SET_NO":999,"REV_AT_EPOCH":15137,"BSTAR":0.00027818,"MEAN_MOTION_DOT":9.224e-5,"MEAN_MOTION_DDOT":0},{"OBJECT_NAME":"LEMUR-2-MANO","OBJECT_ID":"2023-100E","EPOCH":"2026-03-03T00:41:31.070976","MEAN_MOTION":15.58709786,"ECCENTRICITY":0.0002556,"INCLINATION":99.4558,"RA_OF_ASC_NODE":82.3651,"ARG_OF_PERICENTER":60.538,"MEAN_ANOMALY":299.6124,"EPHEMERIS_TYPE":0,"CLASSIFICATION_TYPE":"U","NORAD_CAT_ID":57390,"ELEMENT_SET_NO":999,"REV_AT_EPOCH":14544,"BSTAR":0.0017206,"MEAN_MOTION_DOT":0.00134323,"MEAN_MOTION_DDOT":0},{"OBJECT_NAME":"LEMUR-2-DEVERILL-M-T","OBJECT_ID":"2023-100F","EPOCH":"2026-03-02T23:58:57.723744","MEAN_MOTION":15.34281705,"ECCENTRICITY":0.0008785,"INCLINATION":99.4573,"RA_OF_ASC_NODE":70.5637,"ARG_OF_PERICENTER":48.1198,"MEAN_ANOMALY":312.0787,"EPHEMERIS_TYPE":0,"CLASSIFICATION_TYPE":"U","NORAD_CAT_ID":57391,"ELEMENT_SET_NO":999,"REV_AT_EPOCH":14493,"BSTAR":0.00095063,"MEAN_MOTION_DOT":0.00031581,"MEAN_MOTION_DDOT":0},{"OBJECT_NAME":"LEMUR-2-BASS","OBJECT_ID":"2023-174D","EPOCH":"2026-03-03T04:41:41.706240","MEAN_MOTION":15.39472896,"ECCENTRICITY":0.0007915,"INCLINATION":97.3898,"RA_OF_ASC_NODE":145.6995,"ARG_OF_PERICENTER":184.3889,"MEAN_ANOMALY":175.7289,"EPHEMERIS_TYPE":0,"CLASSIFICATION_TYPE":"U","NORAD_CAT_ID":58259,"ELEMENT_SET_NO":999,"REV_AT_EPOCH":12903,"BSTAR":0.00051316,"MEAN_MOTION_DOT":0.00020088,"MEAN_MOTION_DDOT":0}]
