LEMUR-1                 
1 40044U 14033AL  26061.96688007  .00003273  00000+0  38382-3 0  9993
2 40044  97.7699 214.2587 0049842  67.4848 293.1632 14.84754939629708
LEMUR-2-GREENBERG       
1 42837U 17042N   26062.04350852  .00021120  00000+0  78145-3 0  9994
2 42837  97.3763 243.4486 0009499  26.5998 333.5727 15.27663907472168
LEMUR-2-ANDIS           
1 42838U 17042P   26062.02082053  .00024994  00000+0  85573-3 0  9993
2 42838  97.3647 243.3092 0009464  27.0582 333.1151 15.30172931472195
LEMUR-2-MONSON          
1 42839U 17042Q   26062.03098093  .00018799  00000+0  76101-3 0  9999
2 42839  97.4018 243.5458 0006963  15.9482 344.1974 15.24714254471976
LEMUR-2-FURIAUS         
1 42840U 17042R   26062.01096884  .00027105  00000+0  10584-2 0  9998
2 42840  97.3735 241.6417 0007636  80.7662 279.4440 15.25840935471992
LEMUR-2-PETERG          
1 42841U 17042S   26061.93979098  .00023084  00000+0  81387-3 0  9998
2 42841  97.3963 247.1508 0003997   4.7050 355.4227 15.29267884472170
LEMUR-2-DEMBITZ         
1 42842U 17042T   26061.98655286  .00021862  00000+0  83486-3 0  9998
2 42842  97.3792 244.5104 0007232  39.3603 320.8160 15.26629488472124
LEMUR-2-ZACHARY         
1 42845U 17042W   26061.96703346  .00047226  00000+0  11292-2 0  9997
2 42845  97.3649 251.9992 0003748  42.4362 317.7174 15.41331530472798
LEMUR-2-JIN-LUEN        
1 43182U 18014C   26061.74827622  .00224550  00000+0  14377-2 0  9996
2 43182  97.5453 351.3973 0001707  93.9946 266.1514 15.75656413444379
LEMUR-2-KADI            
1 43184U 18014E   26062.01232242  .00105126  00000+0  11642-2 0  9996
2 43184  97.4722 346.3015 0001225  43.4287 316.7068 15.62642573444344
LEMUR-2-AMANDA-SVANTE   
1 48269U 21034B   26062.16317544  .00031688  00000+0  11595-2 0  9994
2 48269  97.5848 138.1304 0002101 227.7624 132.3437 15.27987593264838
LEMUR-2-SPECIAL-K       
1 48273U 21034F   26062.17411567  .00070883  00000+0  15327-2 0  9997
2 48273  97.5731 143.2096 0001444 221.9143 138.1994 15.44239697265231
LEMUR-2-EMBRIONOVIS     
1 56970U 23084AQ  26061.95480782  .00009224  00000+0  27818-3 0  9997
2 56970  97.6116 202.4209 0008664 338.8061  21.2821 15.34499109151379
LEMUR-2-MANO            
1 57390U 23100E   26062.02883184  .00134323  00000+0  17206-2 0  9993
2 57390  99.4558  82.3651 0002556  60.5380 299.6124 15.58709786145448
LEMUR-2-DEVERILL-M-T    
1 57391U 23100F   26061.99927921  .00031581  00000+0  95063-3 0  9997
2 57391  99.4573  70.5637 0008785  48.1198 312.0787 15.34281705144936
LEMUR-2-BASS            
1 58259U 23174D   26062.19562160  .00020088  00000+0  51316-3 0  9998
2 58259  97.3898 145.6995 0007915 184.3889 175.7289 15.39472896129035
